{
  "norad_id": 59291,
  "name": "AEROCUBE 16B",
  "history": [
    {
      "epoch": "2026-03-28T04:52:35.401728Z",
      "apogee_km": 444.10106694869773,
      "perigee_km": 440.51133128413767,
      "latitude_deg": 3.537294370478196e-07,
      "longitude_deg": 117.20018668220618,
      "height_km": 441.08665914792795,
      "semi_major_axis_km": 6820.443199116417,
      "eccentricity": 0.00026316,
      "inclination_deg": 49.9934,
      "raan_deg": 15.9747,
      "arg_perigee_deg": 8.2177,
      "mean_anomaly_deg": 351.8828,
      "mean_motion_rev_day": 15.41288249
    },
    {
      "epoch": "2026-03-29T04:12:56.179008Z",
      "apogee_km": 443.9173128206239,
      "perigee_km": 440.40895043291493,
      "latitude_deg": 8.907237628959292e-06,
      "longitude_deg": 121.22891862456353,
      "height_km": 441.0049148839179,
      "semi_major_axis_km": 6820.300131626769,
      "eccentricity": 0.0002572,
      "inclination_deg": 49.994,
      "raan_deg": 11.0485,
      "arg_perigee_deg": 12.1341,
      "mean_anomaly_deg": 347.9683,
      "mean_motion_rev_day": 15.41336746
    },
    {
      "epoch": "2026-03-30T03:33:14.309856Z",
      "apogee_km": 443.76107380681333,
      "perigee_km": 440.2909748600332,
      "latitude_deg": -2.055828533584685e-05,
      "longitude_deg": 125.2696766373265,
      "height_km": 440.92166586511155,
      "semi_major_axis_km": 6820.163024333423,
      "eccentricity": 0.0002544,
      "inclination_deg": 49.9941,
      "raan_deg": 6.1233,
      "arg_perigee_deg": 16.8094,
      "mean_anomaly_deg": 343.2952,
      "mean_motion_rev_day": 15.41383225
    },
    {
      "epoch": "2026-03-30T11:19:59.746656Z",
      "apogee_km": 443.64097966963527,
      "perigee_km": 440.31290046916,
      "latitude_deg": 3.2212551504348634e-06,
      "longitude_deg": 6.618292852861143,
      "height_km": 440.9578969090215,
      "semi_major_axis_km": 6820.113940069397,
      "eccentricity": 0.00024399,
      "inclination_deg": 49.9941,
      "raan_deg": 4.4807,
      "arg_perigee_deg": 18.771,
      "mean_anomaly_deg": 341.3342,
      "mean_motion_rev_day": 15.41399865
    },
    {
      "epoch": "2026-03-31T10:40:14.593440Z",
      "apogee_km": 443.4727121731703,
      "perigee_km": 440.24276266552897,
      "latitude_deg": -1.5535074452637018e-05,
      "longitude_deg": 10.672181511973223,
      "height_km": 440.9381044649406,
      "semi_major_axis_km": 6819.99473741935,
      "eccentricity": 0.0002368,
      "inclination_deg": 49.9936,
      "raan_deg": 359.5549,
      "arg_perigee_deg": 23.9565,
      "mean_anomaly_deg": 336.1507,
      "mean_motion_rev_day": 15.41440277
    }
  ]
}